[{"OBJECT_NAME":"STARLINK-30432","OBJECT_ID":"2023-144A","EPOCH":"2026-03-08T23:57:25.431264","MEAN_MOTION":15.26740678,"ECCENTRICITY":0.00032096,"INCLINATION":43.0054,"RA_OF_ASC_NODE":288.9399,"ARG_OF_PERICENTER":261.3656,"MEAN_ANOMALY":98.6832,"EPHEMERIS_TYPE":0,"CLASSIFICATION_TYPE":"U","NORAD_CAT_ID":57864,"ELEMENT_SET_NO":999,"REV_AT_EPOCH":13749,"BSTAR":-0.00010629765,"MEAN_MOTION_DOT":-3.111e-5,"MEAN_MOTION_DDOT":0},{"OBJECT_NAME":"TRANSPORTER-1 OBJECT Z","OBJECT_ID":"2021-006Z","EPOCH":"2026-03-09T22:55:57.522432","MEAN_MOTION":15.30965056,"ECCENTRICITY":0.00100878,"INCLINATION":97.2377,"RA_OF_ASC_NODE":113.4736,"ARG_OF_PERICENTER":179.6869,"MEAN_ANOMALY":180.438,"EPHEMERIS_TYPE":0,"CLASSIFICATION_TYPE":"U","NORAD_CAT_ID":47436,"ELEMENT_SET_NO":999,"REV_AT_EPOCH":28420,"BSTAR":0.00024088983,"MEAN_MOTION_DOT":7.143e-5,"MEAN_MOTION_DDOT":0}]
